{
  "type": "FeatureCollection",
  "features": [
    {
      "type": "Feature",
      "properties": {
        "norad_id": 25590,
        "name": "COSMOS 2361",
        "group": "musson",
        "lat": -28.102035269819424,
        "lon": -27.14527705907399,
        "alt_km": 995.7597841742318,
        "timestamp": "2025-12-22T18:58:53.704331+00:00",
        "meta_object_name": "COSMOS 2361",
        "meta_object_id": "1998-076A",
        "meta_epoch": "2025-12-22T07:27:14.182848",
        "meta_mean_motion": 13.73218583,
        "meta_eccentricity": 0.00302232,
        "meta_inclination": 82.9343,
        "meta_ra_of_asc_node": 337.0072,
        "meta_arg_of_pericenter": 237.877,
        "meta_mean_anomaly": 240.3871,
        "meta_ephemeris_type": 0,
        "meta_classification_type": "U",
        "meta_norad_cat_id": 25590,
        "meta_element_set_no": 999,
        "meta_rev_at_epoch": 35242,
        "meta_bstar": 4.4054664e-05,
        "meta_mean_motion_dot": 5.6e-07,
        "meta_mean_motion_ddot": 0,
        "tle_line1": "1 25590U 98076A   25356.31058082  .00000056  00000+0  44055-4 0  9991",
        "tle_line2": "2 25590  82.9343 337.0072 0030223 237.8770 240.3871 13.73218583352420"
      },
      "geometry": {
        "type": "Point",
        "coordinates": [
          -27.14527705907399,
          -28.102035269819424
        ]
      }
    },
    {
      "type": "Feature",
      "properties": {
        "norad_id": 26818,
        "name": "COSMOS 2378",
        "group": "musson",
        "lat": 75.28314112971483,
        "lon": 20.48009349932749,
        "alt_km": 981.5737954774959,
        "timestamp": "2025-12-22T18:58:53.704353+00:00",
        "meta_object_name": "COSMOS 2378",
        "meta_object_id": "2001-023A",
        "meta_epoch": "2025-12-21T23:28:27.266304",
        "meta_mean_motion": 13.74142721,
        "meta_eccentricity": 0.00329772,
        "meta_inclination": 82.927,
        "meta_ra_of_asc_node": 352.8742,
        "meta_arg_of_pericenter": 178.9434,
        "meta_mean_anomaly": 199.8985,
        "meta_ephemeris_type": 0,
        "meta_classification_type": "U",
        "meta_norad_cat_id": 26818,
        "meta_element_set_no": 999,
        "meta_rev_at_epoch": 23050,
        "meta_bstar": 2.6991008e-05,
        "meta_mean_motion_dot": 4.1e-07,
        "meta_mean_motion_ddot": 0,
        "tle_line1": "1 26818U 01023A   25355.97809336  .00000041  00000+0  26991-4 0  9991",
        "tle_line2": "2 26818  82.9270 352.8742 0032977 178.9434 199.8985 13.74142721230501"
      },
      "geometry": {
        "type": "Point",
        "coordinates": [
          20.48009349932749,
          75.28314112971483
        ]
      }
    },
    {
      "type": "Feature",
      "properties": {
        "norad_id": 27436,
        "name": "COSMOS 2389",
        "group": "musson",
        "lat": -39.29181100246106,
        "lon": -66.26619217230837,
        "alt_km": 977.1599121650988,
        "timestamp": "2025-12-22T18:58:53.704367+00:00",
        "meta_object_name": "COSMOS 2389",
        "meta_object_id": "2002-026A",
        "meta_epoch": "2025-12-22T03:30:33.446016",
        "meta_mean_motion": 13.75155593,
        "meta_eccentricity": 0.00472394,
        "meta_inclination": 82.9511,
        "meta_ra_of_asc_node": 300.0214,
        "meta_arg_of_pericenter": 35.0971,
        "meta_mean_anomaly": 336.1418,
        "meta_ephemeris_type": 0,
        "meta_classification_type": "U",
        "meta_norad_cat_id": 27436,
        "meta_element_set_no": 999,
        "meta_rev_at_epoch": 18278,
        "meta_bstar": 4.9183719e-05,
        "meta_mean_motion_dot": 6.3e-07,
        "meta_mean_motion_ddot": 0,
        "tle_line1": "1 27436U 02026A   25356.14622044  .00000063  00000+0  49184-4 0  9994",
        "tle_line2": "2 27436  82.9511 300.0214 0047239  35.0971 336.1418 13.75155593182786"
      },
      "geometry": {
        "type": "Point",
        "coordinates": [
          -66.26619217230837,
          -39.29181100246106
        ]
      }
    },
    {
      "type": "Feature",
      "properties": {
        "norad_id": 27818,
        "name": "COSMOS 2398",
        "group": "musson",
        "lat": 5.893863734084578,
        "lon": 84.55969984519498,
        "alt_km": 992.6039442704023,
        "timestamp": "2025-12-22T18:58:53.704379+00:00",
        "meta_object_name": "COSMOS 2398",
        "meta_object_id": "2003-023A",
        "meta_epoch": "2025-12-22T06:26:14.999424",
        "meta_mean_motion": 13.72386723,
        "meta_eccentricity": 0.00327155,
        "meta_inclination": 82.9484,
        "meta_ra_of_asc_node": 265.6769,
        "meta_arg_of_pericenter": 86.4158,
        "meta_mean_anomaly": 26.3083,
        "meta_ephemeris_type": 0,
        "meta_classification_type": "U",
        "meta_norad_cat_id": 27818,
        "meta_element_set_no": 999,
        "meta_rev_at_epoch": 12947,
        "meta_bstar": 7.2320183e-05,
        "meta_mean_motion_dot": 8.2e-07,
        "meta_mean_motion_ddot": 0,
        "tle_line1": "1 27818U 03023A   25356.26822916  .00000082  00000+0  72320-4 0  9998",
        "tle_line2": "2 27818  82.9484 265.6769 0032715  86.4158  26.3083 13.72386723129471"
      },
      "geometry": {
        "type": "Point",
        "coordinates": [
          84.55969984519498,
          5.893863734084578
        ]
      }
    },
    {
      "type": "Feature",
      "properties": {
        "norad_id": 28380,
        "name": "COSMOS 2407",
        "group": "musson",
        "lat": 28.053482452013434,
        "lon": 21.674834020827735,
        "alt_km": 992.1448764906036,
        "timestamp": "2025-12-22T18:58:53.704390+00:00",
        "meta_object_name": "COSMOS 2407",
        "meta_object_id": "2004-028A",
        "meta_epoch": "2025-12-22T03:07:00.984864",
        "meta_mean_motion": 13.76314712,
        "meta_eccentricity": 0.00398955,
        "meta_inclination": 82.9597,
        "meta_ra_of_asc_node": 205.9402,
        "meta_arg_of_pericenter": 29.2204,
        "meta_mean_anomaly": 88.6556,
        "meta_ephemeris_type": 0,
        "meta_classification_type": "U",
        "meta_norad_cat_id": 28380,
        "meta_element_set_no": 999,
        "meta_rev_at_epoch": 7552,
        "meta_bstar": 4.6818085e-05,
        "meta_mean_motion_dot": 6.1e-07,
        "meta_mean_motion_ddot": 0,
        "tle_line1": "1 28380U 04028A   25356.12987251  .00000061  00000+0  46818-4 0  9998",
        "tle_line2": "2 28380  82.9597 205.9402 0039895  29.2204  88.6556 13.76314712 75520"
      },
      "geometry": {
        "type": "Point",
        "coordinates": [
          21.674834020827735,
          28.053482452013434
        ]
      }
    },
    {
      "type": "Feature",
      "properties": {
        "norad_id": 28521,
        "name": "COSMOS 2414",
        "group": "musson",
        "lat": 65.47356473723134,
        "lon": -18.679598285641962,
        "alt_km": 899.3818173042209,
        "timestamp": "2025-12-22T18:58:53.704401+00:00",
        "meta_object_name": "COSMOS 2414",
        "meta_object_id": "2005-002A",
        "meta_epoch": "2025-12-22T06:19:38.210880",
        "meta_mean_motion": 13.87904273,
        "meta_eccentricity": 0.00413373,
        "meta_inclination": 82.9488,
        "meta_ra_of_asc_node": 177.458,
        "meta_arg_of_pericenter": 113.2391,
        "meta_mean_anomaly": 247.3133,
        "meta_ephemeris_type": 0,
        "meta_classification_type": "U",
        "meta_norad_cat_id": 28521,
        "meta_element_set_no": 999,
        "meta_rev_at_epoch": 5927,
        "meta_bstar": 5.048429e-05,
        "meta_mean_motion_dot": 7.7e-07,
        "meta_mean_motion_ddot": 0,
        "tle_line1": "1 28521U 05002A   25356.26363670  .00000077  00000+0  50484-4 0  9997",
        "tle_line2": "2 28521  82.9488 177.4580 0041337 113.2391 247.3133 13.87904273 59279"
      },
      "geometry": {
        "type": "Point",
        "coordinates": [
          -18.679598285641962,
          65.47356473723134
        ]
      }
    },
    {
      "type": "Feature",
      "properties": {
        "norad_id": 32052,
        "name": "COSMOS 2429",
        "group": "musson",
        "lat": 32.7183755066802,
        "lon": 151.35927786204397,
        "alt_km": 999.7944493376617,
        "timestamp": "2025-12-22T18:58:53.704411+00:00",
        "meta_object_name": "COSMOS 2429",
        "meta_object_id": "2007-038A",
        "meta_epoch": "2025-12-22T04:18:05.224032",
        "meta_mean_motion": 13.75150313,
        "meta_eccentricity": 0.00386926,
        "meta_inclination": 82.9807,
        "meta_ra_of_asc_node": 336.3497,
        "meta_arg_of_pericenter": 11.929,
        "meta_mean_anomaly": 348.2774,
        "meta_ephemeris_type": 0,
        "meta_classification_type": "U",
        "meta_norad_cat_id": 32052,
        "meta_element_set_no": 999,
        "meta_rev_at_epoch": 91732,
        "meta_bstar": 3.9121182e-05,
        "meta_mean_motion_dot": 5.3e-07,
        "meta_mean_motion_ddot": 0,
        "tle_line1": "1 32052U 07038A   25356.17922713  .00000053  00000+0  39121-4 0  9990",
        "tle_line2": "2 32052  82.9807 336.3497 0038692  11.9290 348.2774 13.75150313917329"
      },
      "geometry": {
        "type": "Point",
        "coordinates": [
          151.35927786204397,
          32.7183755066802
        ]
      }
    },
    {
      "type": "Feature",
      "properties": {
        "norad_id": 35635,
        "name": "COSMOS 2454",
        "group": "musson",
        "lat": -56.258499065650085,
        "lon": -8.307064978413317,
        "alt_km": 950.4407126386768,
        "timestamp": "2025-12-22T18:58:53.704421+00:00",
        "meta_object_name": "COSMOS 2454",
        "meta_object_id": "2009-039A",
        "meta_epoch": "2025-12-22T04:51:18.199008",
        "meta_mean_motion": 13.89929745,
        "meta_eccentricity": 0.0020159,
        "meta_inclination": 82.9557,
        "meta_ra_of_asc_node": 161.4717,
        "meta_arg_of_pericenter": 48.3472,
        "meta_mean_anomaly": 124.9942,
        "meta_ephemeris_type": 0,
        "meta_classification_type": "U",
        "meta_norad_cat_id": 35635,
        "meta_element_set_no": 999,
        "meta_rev_at_epoch": 83281,
        "meta_bstar": 3.7724227e-05,
        "meta_mean_motion_dot": 6.2e-07,
        "meta_mean_motion_ddot": 0,
        "tle_line1": "1 35635U 09039A   25356.20229397  .00000062  00000+0  37724-4 0  9992",
        "tle_line2": "2 35635  82.9557 161.4717 0020159  48.3472 124.9942 13.89929745832812"
      },
      "geometry": {
        "type": "Point",
        "coordinates": [
          -8.307064978413317,
          -56.258499065650085
        ]
      }
    },
    {
      "type": "Feature",
      "properties": {
        "norad_id": 36519,
        "name": "COSMOS 2463",
        "group": "musson",
        "lat": -22.972577083559862,
        "lon": 16.32383894689948,
        "alt_km": 993.4855915337794,
        "timestamp": "2025-12-22T18:58:53.704432+00:00",
        "meta_object_name": "COSMOS 2463",
        "meta_object_id": "2010-017A",
        "meta_epoch": "2025-12-22T01:40:21.878688",
        "meta_mean_motion": 13.71649945,
        "meta_eccentricity": 0.00347614,
        "meta_inclination": 82.9604,
        "meta_ra_of_asc_node": 19.8561,
        "meta_arg_of_pericenter": 261.2168,
        "meta_mean_anomaly": 116.098,
        "meta_ephemeris_type": 0,
        "meta_classification_type": "U",
        "meta_norad_cat_id": 36519,
        "meta_element_set_no": 999,
        "meta_rev_at_epoch": 78365,
        "meta_bstar": 3.9923863e-05,
        "meta_mean_motion_dot": 5.1e-07,
        "meta_mean_motion_ddot": 0,
        "tle_line1": "1 36519U 10017A   25356.06969767  .00000051  00000+0  39924-4 0  9990",
        "tle_line2": "2 36519  82.9604  19.8561 0034761 261.2168 116.0980 13.71649945783655"
      },
      "geometry": {
        "type": "Point",
        "coordinates": [
          16.32383894689948,
          -22.972577083559862
        ]
      }
    }
  ]
}